<?xml version="1.0" encoding="UTF-8"?>
<kml xmlns="http://www.opengis.net/kml/2.2" xmlns:gx="http://www.google.com/kml/ext/2.2" xmlns:kml="http://www.opengis.net/kml/2.2" xmlns:atom="http://www.w3.org/2005/Atom" xmlns:ex="http://earth.google.com/kml/ext">
<Document id="1Mu1fcxAXsR51DIiYY5JlGSITWK0UsaFZ">
	<ex:extension>base64;Co4BCoEBCn8KAggBEnkKdwokCiAKAwjQDxoHCNLtZRD_ASEAAAAAAADwPykAAAAAAAAAABgAEg8KCAitgO8HEP8BEKAfGAAaGgoHCP___wcQQBIICK2A7wcQ_wEYoB8gACgAIgkIARIFCP___wcqFwgBEggI____BxD_ARkAAAAAAADwPyAAEgQIARAAGgIIAA</ex:extension>
	<name>Untitled map project</name>
	<Schema name="__managed_schema" id="__managed_schema">
		<SimpleField type="int" name="template-field/google/usePhotoAsBackgroundImage-integer">
			<displayName>usePhotoAsBackgroundImage</displayName>
			<gx:fieldAlias>usePhotoAsBackgroundImage</gx:fieldAlias>
			<gx:fieldDefault>0</gx:fieldDefault>
		</SimpleField>
	</Schema>
	<gx:CascadingStyle kml:id="__managed_style_0021AD772F4248FBCC54_normal">
		<ex:extension>base64;ErABGAEiqwEKqAEKUGh0dHBzOi8vZWFydGguZ29vZ2xlLmNvbS9iYWxsb29uX2NvbXBvbmVudHMvYmFzZS8xLjEuMC4wL3NsaWRlX3RlbXBsYXRlLmttbCNtYWluElQKUGh0dHBzOi8vZWFydGguZ29vZ2xlLmNvbS9iYWxsb29uX2NvbXBvbmVudHMvYmFzZS9jdXJyZW50L3NsaWRlX3RlbXBsYXRlLmttbCNtYWluGAA</ex:extension>
		<styleUrl>https://earth.google.com/balloon_components/base/1.1.0.0/slide_template.kml#main</styleUrl>
		<Style>
			<IconStyle>
				<Icon>
					<href>https://earth.google.com/earth/document/icon?color=1976d2&amp;id=2000&amp;scale=4</href>
				</Icon>
				<hotSpot x="64" y="128" xunits="pixels" yunits="insetPixels"/>
			</IconStyle>
			<LabelStyle>
			</LabelStyle>
			<LineStyle>
				<color>ff2dc0fb</color>
				<width>4</width>
			</LineStyle>
			<PolyStyle>
				<color>40ffffff</color>
			</PolyStyle>
			<BalloonStyle>
				<bgColor>ff4f4737</bgColor>
				<gx:displayMode>fullscreen</gx:displayMode>
			</BalloonStyle>
		</Style>
	</gx:CascadingStyle>
	<gx:CascadingStyle kml:id="__managed_style_0021AD772F4248FBCC54_highlight">
		<ex:extension>base64;ErABGAEiqwEKqAEKUGh0dHBzOi8vZWFydGguZ29vZ2xlLmNvbS9iYWxsb29uX2NvbXBvbmVudHMvYmFzZS8xLjEuMC4wL3NsaWRlX3RlbXBsYXRlLmttbCNtYWluElQKUGh0dHBzOi8vZWFydGguZ29vZ2xlLmNvbS9iYWxsb29uX2NvbXBvbmVudHMvYmFzZS9jdXJyZW50L3NsaWRlX3RlbXBsYXRlLmttbCNtYWluGAA</ex:extension>
		<styleUrl>https://earth.google.com/balloon_components/base/1.1.0.0/slide_template.kml#main</styleUrl>
		<Style>
			<IconStyle>
				<scale>1.2</scale>
				<Icon>
					<href>https://earth.google.com/earth/document/icon?color=1976d2&amp;id=2000&amp;scale=4</href>
				</Icon>
				<hotSpot x="64" y="128" xunits="pixels" yunits="insetPixels"/>
			</IconStyle>
			<LabelStyle>
			</LabelStyle>
			<LineStyle>
				<color>ff2dc0fb</color>
				<width>6</width>
			</LineStyle>
			<PolyStyle>
				<color>40ffffff</color>
			</PolyStyle>
			<BalloonStyle>
				<bgColor>ff4f4737</bgColor>
				<gx:displayMode>fullscreen</gx:displayMode>
			</BalloonStyle>
		</Style>
	</gx:CascadingStyle>
	<StyleMap id="__managed_style_0021AD772F4248FBCC54">
		<Pair>
			<key>normal</key>
			<styleUrl>#__managed_style_0021AD772F4248FBCC54_normal</styleUrl>
		</Pair>
		<Pair>
			<key>highlight</key>
			<styleUrl>#__managed_style_0021AD772F4248FBCC54_highlight</styleUrl>
		</Pair>
	</StyleMap>
	<Placemark id="02212575104248FBCC47">
		<name>Untitled slide</name>
		<LookAt>
			<longitude>144.9807439067762</longitude>
			<latitude>-37.82130338687419</latitude>
			<altitude>12.58505659096683</altitude>
			<heading>11.4053914059538</heading>
			<tilt>0</tilt>
			<gx:fovy>35</gx:fovy>
			<range>1408.097290525184</range>
			<altitudeMode>absolute</altitudeMode>
		</LookAt>
		<styleUrl>#__managed_style_0021AD772F4248FBCC54</styleUrl>
		<ExtendedData>
			<SchemaData schemaUrl="#__managed_schema">
				<SimpleData name="template-field/google/usePhotoAsBackgroundImage-integer">0</SimpleData>
			</SchemaData>
		</ExtendedData>
	</Placemark>
</Document>
</kml>
